{"type":"FeatureCollection","fuente":"F12","nota":"Geometría simplificada con maxAllowableOffset = 0,003 grados (unos 300 m) y 4 decimales: sirve para mapas de la ciudad, no para medir ni para asignar predios a un distrito. Vigencia de los nombres = fecha de descarga.","features":[{"type":"Feature","geometry":{"type":"Polygon","coordinates":[[[-118.2687,34.0467],[-118.2489,34.0626],[-118.2431,34.0573],[-118.2331,34.0616],[-118.2271,34.0549],[-118.2245,34.0676],[-118.2115,34.066],[-118.2077,34.0786],[-118.1929,34.0859],[-118.1912,34.104],[-118.1862,34.1078],[-118.1894,34.1131],[-118.1841,34.1153],[-118.2284,34.1252],[-118.2481,34.1107],[-118.2397,34.0958],[-118.2292,34.0903],[-118.2274,34.0815],[-118.2405,34.0892],[-118.244,34.0789],[-118.2512,34.0787],[-118.249,34.0734],[-118.2574,34.0768],[-118.2594,34.0618],[-118.2879,34.069],[-118.2899,34.0652],[-118.2823,34.0629],[-118.2911,34.0598],[-118.2916,34.0509],[-118.3,34.0509],[-118.3003,34.0372],[-118.284,34.037],[-118.284,34.0317],[-118.2747,34.0276],[-118.2735,34.0417],[-118.2687,34.0467]]]},"properties":{"cd":1,"nombre":"Eunisses Hernandez","vigencia":"2026-10-06"}},{"type":"Feature","geometry":{"type":"Polygon","coordinates":[[[-118.3373,34.221],[-118.3444,34.2281],[-118.3653,34.2287],[-118.3592,34.2224],[-118.369,34.2191],[-118.3703,34.2084],[-118.3965,34.2085],[-118.3965,34.2217],[-118.4226,34.2217],[-118.4267,34.2073],[-118.4487,34.2117],[-118.4488,34.2012],[-118.44,34.2012],[-118.44,34.1939],[-118.4465,34.1939],[-118.4465,34.1877],[-118.44,34.1877],[-118.44,34.1721],[-118.4137,34.1721],[-118.4112,34.1602],[-118.3877,34.1504],[-118.3861,34.1415],[-118.3675,34.1436],[-118.3628,34.1378],[-118.3612,34.1427],[-118.345,34.1425],[-118.3531,34.1613],[-118.3572,34.1613],[-118.3612,34.1947],[-118.3702,34.1964],[-118.3702,34.201],[-118.3621,34.2011],[-118.363,34.2069],[-118.3399,34.2065],[-118.3346,34.2156],[-118.3373,34.221]]]},"properties":{"cd":2,"nombre":"Adrin Nazarian","vigencia":"2026-10-06"}},{"type":"Feature","geometry":{"type":"Polygon","coordinates":[[[-118.5492,34.2205],[-118.5623,34.2203],[-118.5623,34.2282],[-118.5831,34.2354],[-118.6051,34.2355],[-118.6061,34.2197],[-118.6147,34.2195],[-118.6146,34.1865],[-118.6682,34.1849],[-118.6682,34.1768],[-118.6586,34.1768],[-118.6586,34.1694],[-118.6455,34.1657],[-118.629,34.1473],[-118.615,34.1493],[-118.5574,34.1266],[-118.5444,34.1266],[-118.5316,34.1333],[-118.5273,34.1866],[-118.5372,34.1906],[-118.5386,34.1993],[-118.5273,34.1993],[-118.5273,34.2048],[-118.5367,34.2048],[-118.5405,34.2156],[-118.5492,34.2156],[-118.5492,34.2205]]]},"properties":{"cd":3,"nombre":"Bob Blumenfield","vigencia":"2026-10-06"}},{"type":"Feature","geometry":{"type":"Polygon","coordinates":[[[-118.5186,34.2084],[-118.5186,34.221],[-118.5492,34.2205],[-118.5492,34.2156],[-118.5405,34.2156],[-118.5367,34.2048],[-118.5273,34.2048],[-118.5273,34.1993],[-118.5386,34.1993],[-118.5372,34.1906],[-118.5273,34.1866],[-118.5316,34.1333],[-118.5372,34.1306],[-118.5085,34.1311],[-118.5039,34.1277],[-118.4906,34.1312],[-118.4776,34.1262],[-118.4555,34.1329],[-118.43,34.1321],[-118.4154,34.1264],[-118.4075,34.1295],[-118.3922,34.1181],[-118.3959,34.0911],[-118.3645,34.0971],[-118.3643,34.1013],[-118.3452,34.0972],[-118.3459,34.1037],[-118.3375,34.1052],[-118.3093,34.1054],[-118.276,34.0957],[-118.2702,34.1076],[-118.266,34.0956],[-118.2559,34.1066],[-118.2664,34.1126],[-118.2806,34.1563],[-118.3097,34.1613],[-118.3129,34.154],[-118.3221,34.1557],[-118.3423,34.1448],[-118.3488,34.1314],[-118.3675,34.1436],[-118.3864,34.1416],[-118.3877,34.1504],[-118.4112,34.1602],[-118.4137,34.1721],[-118.44,34.1721],[-118.44,34.1794],[-118.4697,34.1794],[-118.4695,34.161],[-118.4752,34.1653],[-118.4924,34.1655],[-118.5055,34.1722],[-118.5055,34.1802],[-118.5185,34.183],[-118.5186,34.2084]]]},"properties":{"cd":4,"nombre":"Nithya Raman","vigencia":"2026-10-06"}},{"type":"Feature","geometry":{"type":"Polygon","coordinates":[[[-118.3916,34.1124],[-118.3923,34.1182],[-118.4076,34.1295],[-118.4154,34.1264],[-118.43,34.1321],[-118.4555,34.1329],[-118.4775,34.1262],[-118.4805,34.1299],[-118.4828,34.1111],[-118.4738,34.0819],[-118.4555,34.06],[-118.4595,34.0655],[-118.4548,34.0667],[-118.4458,34.0553],[-118.4481,34.0485],[-118.4183,34.0122],[-118.3878,34.0291],[-118.3909,34.0312],[-118.3861,34.0468],[-118.3768,34.0445],[-118.3761,34.0524],[-118.3672,34.0521],[-118.3644,34.0582],[-118.351,34.0526],[-118.3491,34.0573],[-118.3096,34.0526],[-118.3096,34.0597],[-118.3265,34.0619],[-118.3266,34.0835],[-118.3441,34.0838],[-118.3441,34.0889],[-118.3725,34.0854],[-118.3725,34.0903],[-118.377,34.083],[-118.3703,34.0802],[-118.3907,34.0765],[-118.3907,34.0721],[-118.3758,34.0701],[-118.3723,34.0622],[-118.3773,34.0595],[-118.3834,34.0629],[-118.3836,34.0571],[-118.4059,34.0571],[-118.4062,34.0528],[-118.4233,34.0757],[-118.4271,34.0906],[-118.4227,34.0943],[-118.4118,34.0923],[-118.4087,34.1015],[-118.4009,34.094],[-118.4001,34.1109],[-118.3916,34.1124]],[[-118.4161,34.1125],[-118.4098,34.1052],[-118.4174,34.1052],[-118.4161,34.1125]],[[-118.3576,34.0757],[-118.3585,34.0757],[-118.3585,34.076],[-118.3576,34.0757]]]},"properties":{"cd":5,"nombre":"Katy Yaroslavsky","vigencia":"2026-10-06"}},{"type":"Feature","geometry":{"type":"Polygon","coordinates":[[[-118.3653,34.2287],[-118.3671,34.2418],[-118.3793,34.2485],[-118.3782,34.2551],[-118.3906,34.2575],[-118.4163,34.2387],[-118.4422,34.2647],[-118.4611,34.2319],[-118.473,34.2319],[-118.4731,34.2214],[-118.5099,34.2211],[-118.5099,34.2084],[-118.5186,34.2084],[-118.5185,34.183],[-118.5055,34.1802],[-118.5055,34.1722],[-118.4924,34.1655],[-118.4752,34.1653],[-118.4695,34.161],[-118.4697,34.1794],[-118.44,34.1794],[-118.44,34.1877],[-118.4465,34.1877],[-118.4465,34.1939],[-118.44,34.1939],[-118.44,34.2012],[-118.4488,34.2012],[-118.4487,34.2117],[-118.4267,34.2073],[-118.4226,34.2217],[-118.3965,34.2217],[-118.3965,34.2085],[-118.3703,34.2084],[-118.369,34.2191],[-118.3592,34.2224],[-118.3653,34.2287]]]},"properties":{"cd":6,"nombre":"Imelda Padilla","vigencia":"2026-10-06"}},{"type":"Feature","geometry":{"type":"Polygon","coordinates":[[[-118.3373,34.221],[-118.2669,34.2219],[-118.2667,34.2508],[-118.2565,34.2523],[-118.2567,34.2672],[-118.2389,34.2671],[-118.2388,34.2816],[-118.2867,34.2783],[-118.2863,34.2927],[-118.2994,34.2933],[-118.2995,34.2861],[-118.3269,34.2861],[-118.3268,34.2824],[-118.3517,34.2825],[-118.3547,34.2789],[-118.3674,34.2804],[-118.3699,34.2861],[-118.3726,34.2828],[-118.3858,34.2848],[-118.3869,34.2915],[-118.3824,34.2933],[-118.3874,34.2988],[-118.3968,34.297],[-118.4016,34.2864],[-118.4062,34.2859],[-118.4104,34.292],[-118.4035,34.2935],[-118.4011,34.3007],[-118.4056,34.3007],[-118.4055,34.3079],[-118.3963,34.3181],[-118.4049,34.3221],[-118.4052,34.3298],[-118.4136,34.3299],[-118.4159,34.3245],[-118.4208,34.3256],[-118.419,34.3299],[-118.4927,34.3306],[-118.5066,34.3352],[-118.5017,34.3239],[-118.4677,34.2909],[-118.473,34.2319],[-118.4611,34.2319],[-118.4422,34.2647],[-118.4163,34.2387],[-118.3906,34.2575],[-118.3782,34.2551],[-118.3793,34.2485],[-118.3671,34.2418],[-118.3653,34.2287],[-118.3444,34.2281],[-118.3373,34.221]],[[-118.4401,34.2761],[-118.4438,34.2734],[-118.456,34.2849],[-118.4326,34.3047],[-118.4158,34.2938],[-118.4401,34.2761]]]},"properties":{"cd":7,"nombre":"Monica Rodriguez","vigencia":"2026-10-06"}},{"type":"Feature","geometry":{"type":"Polygon","coordinates":[[[-118.3003,34.0372],[-118.309,34.0373],[-118.3089,34.0256],[-118.3177,34.0255],[-118.3182,34.0037],[-118.332,34.0036],[-118.3349,34.0146],[-118.3426,34.0087],[-118.3556,34.0122],[-118.3577,33.9971],[-118.3514,34.0047],[-118.3357,34.0081],[-118.3316,33.9963],[-118.3373,33.9963],[-118.3373,33.9885],[-118.3527,33.9893],[-118.3527,33.9831],[-118.3586,33.9817],[-118.3353,33.9817],[-118.3331,33.9673],[-118.3177,33.9708],[-118.3177,33.9455],[-118.3134,33.9455],[-118.3134,33.9382],[-118.3025,33.9455],[-118.3003,33.9595],[-118.2916,33.9595],[-118.2917,33.9287],[-118.2548,33.9352],[-118.2587,33.9383],[-118.2542,33.9383],[-118.2535,33.9512],[-118.2717,33.9502],[-118.2717,33.9601],[-118.2807,33.9601],[-118.2808,33.9824],[-118.3003,33.9833],[-118.3002,34.0109],[-118.2916,34.0109],[-118.2916,34.0284],[-118.284,34.0317],[-118.284,34.037],[-118.3003,34.0372]]]},"properties":{"cd":8,"nombre":"Marqueece Harris-Dawson","vigencia":"2026-10-06"}},{"type":"Feature","geometry":{"type":"Polygon","coordinates":[[[-118.2397,34.0148],[-118.2395,34.02],[-118.2708,34.0338],[-118.2639,34.045],[-118.2687,34.0467],[-118.2735,34.0417],[-118.2747,34.0276],[-118.2864,34.0328],[-118.2916,34.0284],[-118.2916,34.0109],[-118.3002,34.0109],[-118.3003,33.9833],[-118.2808,33.9824],[-118.2807,33.9601],[-118.2717,33.9601],[-118.2717,33.9502],[-118.254,33.9503],[-118.2563,33.9895],[-118.2379,33.9894],[-118.2397,34.0148]]]},"properties":{"cd":9,"nombre":"Curren D. Price Jr.","vigencia":"2026-10-06"}},{"type":"Feature","geometry":{"type":"Polygon","coordinates":[[[-118.2879,34.069],[-118.2917,34.0691],[-118.2917,34.0763],[-118.3085,34.0763],[-118.3092,34.0799],[-118.3097,34.0635],[-118.3144,34.0609],[-118.3096,34.0597],[-118.3096,34.0526],[-118.3491,34.0573],[-118.351,34.0526],[-118.3644,34.0582],[-118.3672,34.0521],[-118.3761,34.0524],[-118.3768,34.0445],[-118.3861,34.0468],[-118.3909,34.0312],[-118.3864,34.0289],[-118.3696,34.0351],[-118.3814,34.0208],[-118.3728,34.0184],[-118.3732,34.0119],[-118.3727,34.0158],[-118.3667,34.0156],[-118.365,34.0056],[-118.3556,34.0122],[-118.3426,34.0087],[-118.3361,34.0147],[-118.332,34.0036],[-118.3182,34.0037],[-118.3177,34.0255],[-118.3089,34.0256],[-118.309,34.0373],[-118.3003,34.0372],[-118.3,34.0509],[-118.2916,34.0509],[-118.2911,34.0598],[-118.2842,34.06],[-118.2823,34.0629],[-118.2899,34.0652],[-118.2879,34.069]]]},"properties":{"cd":10,"nombre":"Heather Hutt","vigencia":"2026-10-06"}},{"type":"Feature","geometry":{"type":"Polygon","coordinates":[[[-118.4805,34.1299],[-118.5218,34.128],[-118.5348,34.1317],[-118.5481,34.1258],[-118.5648,34.1311],[-118.5992,34.0743],[-118.5704,34.0694],[-118.5672,34.0414],[-118.545,34.0384],[-118.5176,34.0251],[-118.4944,34.0506],[-118.4838,34.0416],[-118.4772,34.0466],[-118.4531,34.0281],[-118.4435,34.0166],[-118.4834,33.9955],[-118.462,33.971],[-118.4604,33.9605],[-118.4524,33.9571],[-118.4303,33.9168],[-118.4222,33.9163],[-118.4288,33.9308],[-118.3684,33.929],[-118.3702,33.9526],[-118.3789,33.9526],[-118.3789,33.958],[-118.3713,33.9634],[-118.3702,33.9816],[-118.3585,33.983],[-118.386,33.9766],[-118.4079,33.9921],[-118.3998,34.0016],[-118.4028,34.0035],[-118.4059,33.9992],[-118.4144,34.0037],[-118.4197,33.9976],[-118.4312,33.9964],[-118.4309,33.9893],[-118.4371,33.9953],[-118.4472,33.9908],[-118.4283,34.0013],[-118.4202,33.9988],[-118.4183,34.0122],[-118.4486,34.0493],[-118.4566,34.0477],[-118.468,34.0609],[-118.4667,34.0677],[-118.4588,34.0581],[-118.4555,34.06],[-118.4742,34.0828],[-118.4828,34.1111],[-118.4805,34.1299]],[[-118.4549,33.9864],[-118.4415,33.9834],[-118.4323,33.975],[-118.4513,33.9642],[-118.4633,33.981],[-118.4549,33.9864]],[[-118.4149,33.9842],[-118.409,33.9813],[-118.4125,33.9803],[-118.4149,33.9842]]]},"properties":{"cd":11,"nombre":"Traci Park","vigencia":"2026-10-06"}},{"type":"Feature","geometry":{"type":"Polygon","coordinates":[[[-118.473,34.2319],[-118.4677,34.2909],[-118.5017,34.3239],[-118.5066,34.3352],[-118.534,34.3145],[-118.5463,34.3173],[-118.5408,34.2988],[-118.5598,34.2992],[-118.5687,34.2946],[-118.5881,34.3029],[-118.5962,34.2746],[-118.6075,34.2778],[-118.6335,34.2697],[-118.63,34.2386],[-118.647,34.2381],[-118.6497,34.2271],[-118.6584,34.2235],[-118.6584,34.2164],[-118.6524,34.2164],[-118.6533,34.213],[-118.6678,34.2093],[-118.6681,34.195],[-118.6566,34.1968],[-118.6575,34.1899],[-118.6682,34.1913],[-118.6682,34.1849],[-118.6146,34.1865],[-118.6147,34.2195],[-118.6061,34.2197],[-118.6051,34.2355],[-118.5711,34.2318],[-118.5711,34.2282],[-118.5623,34.2282],[-118.5623,34.2203],[-118.5186,34.221],[-118.5186,34.2084],[-118.5099,34.2084],[-118.5099,34.2211],[-118.4731,34.2214],[-118.473,34.2319]]]},"properties":{"cd":12,"nombre":"John Lee","vigencia":"2026-10-06"}},{"type":"Feature","geometry":{"type":"Polygon","coordinates":[[[-118.279,34.1532],[-118.2664,34.1126],[-118.2559,34.1066],[-118.266,34.0956],[-118.2701,34.1076],[-118.276,34.0957],[-118.3093,34.1054],[-118.3452,34.104],[-118.3452,34.0972],[-118.3643,34.1013],[-118.3617,34.0945],[-118.3434,34.0944],[-118.3441,34.0838],[-118.3266,34.0835],[-118.3265,34.0619],[-118.3097,34.0635],[-118.3092,34.0799],[-118.3085,34.0763],[-118.2917,34.0763],[-118.2917,34.0691],[-118.2594,34.0618],[-118.2574,34.0768],[-118.249,34.0734],[-118.2512,34.0787],[-118.244,34.0789],[-118.2405,34.0892],[-118.2274,34.0815],[-118.2294,34.0905],[-118.2495,34.1086],[-118.2297,34.1217],[-118.2296,34.1356],[-118.2363,34.1345],[-118.2353,34.1267],[-118.2533,34.1245],[-118.2543,34.1188],[-118.279,34.1532]]]},"properties":{"cd":13,"nombre":"Hugo Soto-Martinez","vigencia":"2026-10-06"}},{"type":"Feature","geometry":{"type":"Polygon","coordinates":[[[-118.2397,34.0148],[-118.1914,34.0129],[-118.1926,34.0618],[-118.1653,34.0623],[-118.1607,34.0935],[-118.1554,34.0987],[-118.178,34.0986],[-118.178,34.1103],[-118.1658,34.1256],[-118.1768,34.1231],[-118.1861,34.1337],[-118.1804,34.141],[-118.1838,34.1491],[-118.1982,34.1516],[-118.2088,34.1465],[-118.2262,34.1498],[-118.2287,34.1467],[-118.2267,34.1237],[-118.1841,34.1152],[-118.1894,34.1131],[-118.1862,34.1078],[-118.1912,34.104],[-118.1929,34.0859],[-118.2077,34.0786],[-118.2115,34.066],[-118.2245,34.0676],[-118.2271,34.0549],[-118.2331,34.0616],[-118.2431,34.0573],[-118.2489,34.0626],[-118.2687,34.0467],[-118.2639,34.045],[-118.2708,34.0338],[-118.2395,34.02],[-118.2397,34.0148]]]},"properties":{"cd":14,"nombre":"Ysabel J. Jurado","vigencia":"2026-10-06"}},{"type":"Feature","geometry":{"type":"Polygon","coordinates":[[[-118.2917,33.9287],[-118.2906,33.8663],[-118.2981,33.8655],[-118.2944,33.8706],[-118.2992,33.8705],[-118.2993,33.8657],[-118.3093,33.8657],[-118.3098,33.7819],[-118.3064,33.775],[-118.3117,33.7629],[-118.301,33.7577],[-118.3091,33.7577],[-118.3095,33.7468],[-118.3185,33.7468],[-118.3185,33.732],[-118.3285,33.7294],[-118.3331,33.7219],[-118.298,33.7096],[-118.2945,33.7046],[-118.2829,33.7091],[-118.2719,33.7051],[-118.2846,33.7138],[-118.2799,33.7178],[-118.2839,33.7242],[-118.277,33.7224],[-118.274,33.7138],[-118.2766,33.726],[-118.2711,33.7203],[-118.2786,33.7314],[-118.2742,33.7292],[-118.2787,33.7383],[-118.2749,33.7469],[-118.2784,33.7488],[-118.2738,33.7513],[-118.2773,33.7564],[-118.2895,33.7549],[-118.2756,33.7608],[-118.2786,33.7691],[-118.2706,33.7671],[-118.2721,33.7544],[-118.2653,33.7632],[-118.2672,33.7531],[-118.2611,33.7594],[-118.2638,33.7657],[-118.2598,33.7664],[-118.2595,33.7611],[-118.2415,33.7772],[-118.249,33.7718],[-118.2475,33.7655],[-118.2512,33.7669],[-118.242,33.7666],[-118.2578,33.7595],[-118.2748,33.7407],[-118.2648,33.7226],[-118.2709,33.7367],[-118.2664,33.7386],[-118.2638,33.7309],[-118.2441,33.7362],[-118.2512,33.7375],[-118.254,33.7452],[-118.2506,33.7507],[-118.2473,33.7488],[-118.241,33.7336],[-118.2582,33.7289],[-118.2605,33.7241],[-118.2576,33.7168],[-118.2461,33.7156],[-118.2512,33.7236],[-118.2371,33.7277],[-118.249,33.7559],[-118.2408,33.7583],[-118.2455,33.7639],[-118.2207,33.7825],[-118.2276,33.79],[-118.2224,33.8042],[-118.2246,33.8244],[-118.2266,33.8295],[-118.224,33.8062],[-118.2301,33.7925],[-118.2375,33.8005],[-118.2586,33.7994],[-118.2567,33.8048],[-118.2646,33.8046],[-118.2646,33.7991],[-118.2991,33.7977],[-118.2991,33.8464],[-118.2862,33.8463],[-118.2853,33.8542],[-118.2907,33.8542],[-118.2907,33.8586],[-118.2815,33.8627],[-118.2821,33.9232],[-118.2536,33.9231],[-118.2542,33.9294],[-118.2303,33.9289],[-118.2286,33.9484],[-118.2339,33.9483],[-118.2339,33.9533],[-118.2475,33.9543],[-118.2492,33.9432],[-118.2587,33.9383],[-118.2548,33.9352],[-118.2917,33.9287]],[[-118.2991,33.8473],[-118.2971,33.8582],[-118.297,33.8473],[-118.2991,33.8473]],[[-118.2995,33.7442],[-118.2969,33.7378],[-118.3092,33.7378],[-118.3091,33.7416],[-118.3022,33.7393],[-118.2995,33.7442]]]},"properties":{"cd":15,"nombre":"Tim McOsker","vigencia":"2026-10-06"}}]}
